start=new Date('2023-03-30T00:00:00.000Z').valueOf();
sats=[{"COUNTRY_CODE":"US","DECAY_DATE":null,"CENTER_NAME":"EARTH","MEAN_ANOMALY":"267.9272","RCS_SIZE":"LARGE","FILE":"3874790","RA_OF_ASC_NODE":"126.4601","OBJECT_ID":"2021-024AC","MEAN_ELEMENT_THEORY":"SGP4","ECCENTRICITY":"0.00022300","MEAN_MOTION_DDOT":"0.0000000000000","ELEMENT_SET_NO":"999","OBJECT_TYPE":"PAYLOAD","LAUNCH_DATE":"2021-03-24","APOAPSIS":"548.754","SEMIMAJOR_AXIS":"6925.345","ARG_OF_PERICENTER":"92.1972","REF_FRAME":"TEME","REV_AT_EPOCH":"11233","OBJECT_NAME":"STARLINK-2263","PERIOD":"95.592","TLE_LINE1":"1 48003U 21024AC  23088.80230953 -.00014020  00000-0 -92408-3 0  9990","SITE":"AFETR","PERIAPSIS":"545.665","INCLINATION":"53.0528","EPHEMERIS_TYPE":"0","MEAN_MOTION":"15.06401271","NORAD_CAT_ID":"48003","GP_ID":"229137711","TLE_LINE2":"2 48003  53.0528 126.4601 0002230  92.1972 267.9272 15.06401271112339","BSTAR":"-0.00092408000000","MEAN_MOTION_DOT":"-0.00014020","TIME_SYSTEM":"UTC","EPOCH":"2023-03-29T19:15:19.543392","CLASSIFICATION_TYPE":"U"},{"MEAN_MOTION_DDOT":"0.0000000000000","APOAPSIS":"548.226","LAUNCH_DATE":"2021-03-24","OBJECT_TYPE":"PAYLOAD","ELEMENT_SET_NO":"999","ARG_OF_PERICENTER":"98.3984","REF_FRAME":"TEME","SEMIMAJOR_AXIS":"6925.233","OBJECT_NAME":"STARLINK-2254","REV_AT_EPOCH":"11274","DECAY_DATE":null,"COUNTRY_CODE":"US","MEAN_ANOMALY":"261.7190","CENTER_NAME":"EARTH","RA_OF_ASC_NODE":"96.8622","MEAN_ELEMENT_THEORY":"SGP4","OBJECT_ID":"2021-024AE","FILE":"3874790","RCS_SIZE":"LARGE","ECCENTRICITY":"0.00016280","TLE_LINE2":"2 48005  53.0533  96.8622 0001628  98.3984 261.7190 15.06437561112748","BSTAR":"0.00076887000000","GP_ID":"229136964","MEAN_MOTION_DOT":"0.00011201","NORAD_CAT_ID":"48005","EPOCH":"2023-03-29T17:06:35.966592","TIME_SYSTEM":"UTC","CLASSIFICATION_TYPE":"U","PERIOD":"95.590","TLE_LINE1":"1 48005U 21024AE  23088.71291628  .00011201  00000-0  76887-3 0  9997","SITE":"AFETR","MEAN_MOTION":"15.06437561","EPHEMERIS_TYPE":"0","INCLINATION":"53.0533","PERIAPSIS":"545.971"},{"DECAY_DATE":null,"COUNTRY_CODE":"US","MEAN_ANOMALY":"256.3273","CENTER_NAME":"EARTH","RA_OF_ASC_NODE":"34.4475","MEAN_ELEMENT_THEORY":"SGP4","OBJECT_ID":"2021-024AH","RCS_SIZE":"LARGE","FILE":"3874492","ECCENTRICITY":"0.00011880","MEAN_MOTION_DDOT":"0.0000000000000","APOAPSIS":"547.998","LAUNCH_DATE":"2021-03-24","ELEMENT_SET_NO":"999","OBJECT_TYPE":"PAYLOAD","ARG_OF_PERICENTER":"103.7848","REF_FRAME":"TEME","SEMIMAJOR_AXIS":"6925.311","OBJECT_NAME":"STARLINK-2271","REV_AT_EPOCH":"11357","PERIOD":"95.591","TLE_LINE1":"1 48008U 21024AH  23088.13743216  .00008658  00000-0  59923-3 0  9995","SITE":"AFETR","EPHEMERIS_TYPE":"0","MEAN_MOTION":"15.06412338","PERIAPSIS":"546.353","INCLINATION":"53.0542","GP_ID":"229104939","TLE_LINE2":"2 48008  53.0542  34.4475 0001188 103.7848 256.3273 15.06412338113575","MEAN_MOTION_DOT":"0.00008658","BSTAR":"0.00059923000000","NORAD_CAT_ID":"48008","TIME_SYSTEM":"UTC","EPOCH":"2023-03-29T03:17:54.138624","CLASSIFICATION_TYPE":"U"},{"SITE":"AFETR","EPHEMERIS_TYPE":"0","MEAN_MOTION":"15.06436115","PERIAPSIS":"546.029","INCLINATION":"53.0525","PERIOD":"95.590","TLE_LINE1":"1 48009U 21024AJ  23088.32866577  .00020446  00000-0  13862-2 0  9993","CLASSIFICATION_TYPE":"U","GP_ID":"229104690","TLE_LINE2":"2 48009  53.0525 108.5880 0001550  93.1760 266.9407 15.06436115112550","MEAN_MOTION_DOT":"0.00020446","BSTAR":"0.00138620000000","NORAD_CAT_ID":"48009","TIME_SYSTEM":"UTC","EPOCH":"2023-03-29T07:53:16.722528","RA_OF_ASC_NODE":"108.5880","OBJECT_ID":"2021-024AJ","MEAN_ELEMENT_THEORY":"SGP4","RCS_SIZE":"LARGE","FILE":"3874492","ECCENTRICITY":"0.00015500","DECAY_DATE":null,"COUNTRY_CODE":"US","MEAN_ANOMALY":"266.9407","CENTER_NAME":"EARTH","ARG_OF_PERICENTER":"93.1760","REF_FRAME":"TEME","SEMIMAJOR_AXIS":"6925.238","OBJECT_NAME":"STARLINK-2153","REV_AT_EPOCH":"11255","MEAN_MOTION_DDOT":"0.0000000000000","APOAPSIS":"548.176","LAUNCH_DATE":"2021-03-24","ELEMENT_SET_NO":"999","OBJECT_TYPE":"PAYLOAD"},{"EPOCH":"2023-03-29T09:47:23.753184","TIME_SYSTEM":"UTC","NORAD_CAT_ID":"48010","BSTAR":"0.00162250000000","TLE_LINE2":"2 48010  53.0521 128.2343 0001142  87.0417 273.0703 15.06440038112286","GP_ID":"229103438","MEAN_MOTION_DOT":"0.00023994","CLASSIFICATION_TYPE":"U","TLE_LINE1":"1 48010U 21024AK  23088.40791381  .00023994  00000-0  16225-2 0  9991","PERIOD":"95.590","INCLINATION":"53.0521","PERIAPSIS":"546.300","MEAN_MOTION":"15.06440038","EPHEMERIS_TYPE":"0","SITE":"AFETR","OBJECT_TYPE":"PAYLOAD","ELEMENT_SET_NO":"999","LAUNCH_DATE":"2021-03-24","APOAPSIS":"547.882","MEAN_MOTION_DDOT":"0.0000000000000","REV_AT_EPOCH":"11228","OBJECT_NAME":"STARLINK-2226","SEMIMAJOR_AXIS":"6925.226","ARG_OF_PERICENTER":"87.0417","REF_FRAME":"TEME","CENTER_NAME":"EARTH","MEAN_ANOMALY":"273.0703","COUNTRY_CODE":"US","DECAY_DATE":null,"ECCENTRICITY":"0.00011420","FILE":"3874492","RCS_SIZE":"LARGE","RA_OF_ASC_NODE":"128.2343","MEAN_ELEMENT_THEORY":"SGP4","OBJECT_ID":"2021-024AK"},{"SEMIMAJOR_AXIS":"6925.364","ARG_OF_PERICENTER":"92.2292","REF_FRAME":"TEME","REV_AT_EPOCH":"11267","OBJECT_NAME":"STARLINK-2272","MEAN_MOTION_DDOT":"0.0000000000000","ELEMENT_SET_NO":"999","OBJECT_TYPE":"PAYLOAD","APOAPSIS":"548.339","LAUNCH_DATE":"2021-03-24","RCS_SIZE":"LARGE","FILE":"3874790","OBJECT_ID":"2021-024AL","RA_OF_ASC_NODE":"106.6406","MEAN_ELEMENT_THEORY":"SGP4","ECCENTRICITY":"0.00016040","COUNTRY_CODE":"US","DECAY_DATE":null,"CENTER_NAME":"EARTH","MEAN_ANOMALY":"267.8881","CLASSIFICATION_TYPE":"U","NORAD_CAT_ID":"48011","BSTAR":"-0.00056710000000","TLE_LINE2":"2 48011  53.0523 106.6406 0001604  92.2292 267.8881 15.06395105112676","GP_ID":"229136465","MEAN_MOTION_DOT":"-0.00008717","TIME_SYSTEM":"UTC","EPOCH":"2023-03-29T18:18:14.239584","SITE":"AFETR","PERIAPSIS":"546.118","INCLINATION":"53.0523","EPHEMERIS_TYPE":"0","MEAN_MOTION":"15.06395105","PERIOD":"95.592","TLE_LINE1":"1 48011U 21024AL  23088.76266481 -.00008717  00000-0 -56710-3 0  9991"},{"MEAN_MOTION":"15.86811686","EPHEMERIS_TYPE":"0","INCLINATION":"53.0396","PERIAPSIS":"306.987","SITE":"AFETR","TLE_LINE1":"1 48012U 21024AM  23088.91667824  .00384905  00000-0  14088-2 0  9990","PERIOD":"90.748","CLASSIFICATION_TYPE":"U","EPOCH":"2023-03-29T22:00:00.999936","TIME_SYSTEM":"UTC","TLE_LINE2":"2 48012  53.0396 312.4345 0006344 220.2004 333.4299 15.86811686  1309","GP_ID":"229137214","BSTAR":"0.00140880000000","MEAN_MOTION_DOT":"0.00384905","NORAD_CAT_ID":"48012","ECCENTRICITY":"0.00063440","MEAN_ELEMENT_THEORY":"SGP4","RA_OF_ASC_NODE":"312.4345","OBJECT_ID":"2021-024AM","FILE":"3874790","RCS_SIZE":"LARGE","MEAN_ANOMALY":"333.4299","CENTER_NAME":"EARTH","DECAY_DATE":null,"COUNTRY_CODE":"US","OBJECT_NAME":"STARLINK-2216","REV_AT_EPOCH":"130","ARG_OF_PERICENTER":"220.2004","REF_FRAME":"TEME","SEMIMAJOR_AXIS":"6689.365","APOAPSIS":"315.474","LAUNCH_DATE":"2021-03-24","OBJECT_TYPE":"PAYLOAD","ELEMENT_SET_NO":"999","MEAN_MOTION_DDOT":"0.0000000000000"},{"CLASSIFICATION_TYPE":"U","EPOCH":"2023-03-29T17:15:13.952736","TIME_SYSTEM":"UTC","GP_ID":"229137966","TLE_LINE2":"2 48013  53.0529  91.8366 0001696  97.3386 262.7796 15.06413246112828","MEAN_MOTION_DOT":"0.00001218","BSTAR":"0.00010063000000","NORAD_CAT_ID":"48013","MEAN_MOTION":"15.06413246","EPHEMERIS_TYPE":"0","INCLINATION":"53.0529","PERIAPSIS":"545.998","SITE":"AFETR","TLE_LINE1":"1 48013U 21024AN  23088.71891149  .00001218  00000-0  10063-3 0  9991","PERIOD":"95.591","REV_AT_EPOCH":"11282","OBJECT_NAME":"STARLINK-2243","ARG_OF_PERICENTER":"97.3386","REF_FRAME":"TEME","SEMIMAJOR_AXIS":"6925.308","APOAPSIS":"548.347","LAUNCH_DATE":"2021-03-24","OBJECT_TYPE":"PAYLOAD","ELEMENT_SET_NO":"999","MEAN_MOTION_DDOT":"0.0000000000000","ECCENTRICITY":"0.00016960","RA_OF_ASC_NODE":"91.8366","OBJECT_ID":"2021-024AN","MEAN_ELEMENT_THEORY":"SGP4","FILE":"3874790","RCS_SIZE":"LARGE","MEAN_ANOMALY":"262.7796","CENTER_NAME":"EARTH","DECAY_DATE":null,"COUNTRY_CODE":"US"},{"SITE":"AFETR","EPHEMERIS_TYPE":"0","MEAN_MOTION":"15.06446476","PERIAPSIS":"546.183","INCLINATION":"53.0546","PERIOD":"95.589","TLE_LINE1":"1 48014U 21024AP  23088.40334403  .00028854  00000-0  19456-2 0  9992","CLASSIFICATION_TYPE":"U","GP_ID":"229113179","TLE_LINE2":"2 48014  53.0546  58.4139 0001282 108.7961 251.3167 15.06446476112784","BSTAR":"0.00194560000000","MEAN_MOTION_DOT":"0.00028854","NORAD_CAT_ID":"48014","TIME_SYSTEM":"UTC","EPOCH":"2023-03-29T09:40:48.924192","RA_OF_ASC_NODE":"58.4139","MEAN_ELEMENT_THEORY":"SGP4","OBJECT_ID":"2021-024AP","RCS_SIZE":"LARGE","FILE":"3874663","ECCENTRICITY":"0.00012820","DECAY_DATE":null,"COUNTRY_CODE":"US","MEAN_ANOMALY":"251.3167","CENTER_NAME":"EARTH","ARG_OF_PERICENTER":"108.7961","REF_FRAME":"TEME","SEMIMAJOR_AXIS":"6925.206","REV_AT_EPOCH":"11278","OBJECT_NAME":"STARLINK-2283","MEAN_MOTION_DDOT":"0.0000000000000","APOAPSIS":"547.959","LAUNCH_DATE":"2021-03-24","ELEMENT_SET_NO":"999","OBJECT_TYPE":"PAYLOAD"},{"COUNTRY_CODE":"US","DECAY_DATE":null,"CENTER_NAME":"EARTH","MEAN_ANOMALY":"264.5205","FILE":"3874664","RCS_SIZE":"LARGE","MEAN_ELEMENT_THEORY":"SGP4","RA_OF_ASC_NODE":"44.2184","OBJECT_ID":"2021-024AR","ECCENTRICITY":"0.00011110","MEAN_MOTION_DDOT":"0.0000000000000","OBJECT_TYPE":"PAYLOAD","ELEMENT_SET_NO":"999","LAUNCH_DATE":"2021-03-24","APOAPSIS":"547.869","SEMIMAJOR_AXIS":"6925.235","ARG_OF_PERICENTER":"95.5911","REF_FRAME":"TEME","OBJECT_NAME":"STARLINK-2284","REV_AT_EPOCH":"11296","PERIOD":"95.590","TLE_LINE1":"1 48016U 21024AR  23088.23331465  .00020841  00000-0  14125-2 0  9996","SITE":"AFETR","INCLINATION":"53.0543","PERIAPSIS":"546.331","MEAN_MOTION":"15.06437018","EPHEMERIS_TYPE":"0","NORAD_CAT_ID":"48016","MEAN_MOTION_DOT":"0.00020841","TLE_LINE2":"2 48016  53.0543  44.2184 0001111  95.5911 264.5205 15.06437018112966","GP_ID":"229113157","BSTAR":"0.00141250000000","EPOCH":"2023-03-29T05:35:58.385760","TIME_SYSTEM":"UTC","CLASSIFICATION_TYPE":"U"}];
